{
  "type": "FeatureCollection",
  "features": [
    {
      "type": "Feature",
      "properties": {
        "norad_id": 64694,
        "name": "GOSAT-GW (IBUKI GW)",
        "group": "resource",
        "lat": -73.32832519039562,
        "lon": -40.77201079494108,
        "alt_km": 677.1181955806087,
        "timestamp": "2025-12-21T16:47:54.386910+00:00",
        "meta_object_name": "GOSAT-GW (IBUKI GW)",
        "meta_object_id": "2025-141A",
        "meta_epoch": "2025-12-21T12:13:56.438400",
        "meta_mean_motion": 14.67561065,
        "meta_eccentricity": 0.0001438,
        "meta_inclination": 98.0437,
        "meta_ra_of_asc_node": 290.8639,
        "meta_arg_of_pericenter": 84.3774,
        "meta_mean_anomaly": 275.7595,
        "meta_ephemeris_type": 0,
        "meta_classification_type": "U",
        "meta_norad_cat_id": 64694,
        "meta_element_set_no": 999,
        "meta_rev_at_epoch": 2578,
        "meta_bstar": 0.00011928,
        "meta_mean_motion_dot": 6.29e-06,
        "meta_mean_motion_ddot": 0,
        "tle_line1": "1 64694U 25141A   25355.50968100  .00000629  00000+0  11928-3 0  9991",
        "tle_line2": "2 64694  98.0437 290.8639 0001438  84.3774 275.7595 14.67561065 25781"
      },
      "geometry": {
        "type": "Point",
        "coordinates": [
          -40.77201079494108,
          -73.32832519039562
        ]
      }
    },
    {
      "type": "Feature",
      "properties": {
        "norad_id": 64876,
        "name": "IONOSFERA-M 3",
        "group": "resource",
        "lat": -60.77037465784372,
        "lon": 121.66081093038657,
        "alt_km": 828.9705119545133,
        "timestamp": "2025-12-21T16:47:54.386921+00:00",
        "meta_object_name": "IONOSFERA-M 3",
        "meta_object_id": "2025-155A",
        "meta_epoch": "2025-12-21T12:17:06.508896",
        "meta_mean_motion": 14.21442995,
        "meta_eccentricity": 0.0001983,
        "meta_inclination": 98.5795,
        "meta_ra_of_asc_node": 317.1301,
        "meta_arg_of_pericenter": 45.7595,
        "meta_mean_anomaly": 314.3745,
        "meta_ephemeris_type": 0,
        "meta_classification_type": "U",
        "meta_norad_cat_id": 64876,
        "meta_element_set_no": 999,
        "meta_rev_at_epoch": 2116,
        "meta_bstar": 4.137e-05,
        "meta_mean_motion_dot": 4.8e-07,
        "meta_mean_motion_ddot": 0,
        "tle_line1": "1 64876U 25155A   25355.51188089  .00000048  00000+0  41370-4 0  9999",
        "tle_line2": "2 64876  98.5795 317.1301 0001983  45.7595 314.3745 14.21442995 21166"
      },
      "geometry": {
        "type": "Point",
        "coordinates": [
          121.66081093038657,
          -60.77037465784372
        ]
      }
    },
    {
      "type": "Feature",
      "properties": {
        "norad_id": 64877,
        "name": "IONOSFERA-M 4",
        "group": "resource",
        "lat": 61.33380706152008,
        "lon": -58.7970121851165,
        "alt_km": 813.4875444601457,
        "timestamp": "2025-12-21T16:47:54.386930+00:00",
        "meta_object_name": "IONOSFERA-M 4",
        "meta_object_id": "2025-155B",
        "meta_epoch": "2025-12-21T11:26:13.869888",
        "meta_mean_motion": 14.21444119,
        "meta_eccentricity": 0.000139,
        "meta_inclination": 98.5794,
        "meta_ra_of_asc_node": 317.0152,
        "meta_arg_of_pericenter": 54.9702,
        "meta_mean_anomaly": 305.1605,
        "meta_ephemeris_type": 0,
        "meta_classification_type": "U",
        "meta_norad_cat_id": 64877,
        "meta_element_set_no": 999,
        "meta_rev_at_epoch": 2115,
        "meta_bstar": 3.8406e-05,
        "meta_mean_motion_dot": 4.1e-07,
        "meta_mean_motion_ddot": 0,
        "tle_line1": "1 64877U 25155B   25355.47654942  .00000041  00000+0  38406-4 0  9990",
        "tle_line2": "2 64877  98.5794 317.0152 0001390  54.9702 305.1605 14.21444119 21155"
      },
      "geometry": {
        "type": "Point",
        "coordinates": [
          -58.7970121851165,
          61.33380706152008
        ]
      }
    },
    {
      "type": "Feature",
      "properties": {
        "norad_id": 64899,
        "name": "MICROCARB",
        "group": "resource",
        "lat": 46.51623010029531,
        "lon": 62.37220654237482,
        "alt_km": 646.2698042088396,
        "timestamp": "2025-12-21T16:47:54.386941+00:00",
        "meta_object_name": "MICROCARB",
        "meta_object_id": "2025-156A",
        "meta_epoch": "2025-12-21T05:09:56.513088",
        "meta_mean_motion": 14.72069919,
        "meta_eccentricity": 0.0017535,
        "meta_inclination": 98.0016,
        "meta_ra_of_asc_node": 70.4245,
        "meta_arg_of_pericenter": 119.2699,
        "meta_mean_anomaly": 241.0264,
        "meta_ephemeris_type": 0,
        "meta_classification_type": "U",
        "meta_norad_cat_id": 64899,
        "meta_element_set_no": 999,
        "meta_rev_at_epoch": 2178,
        "meta_bstar": 9.7829e-05,
        "meta_mean_motion_dot": 5.67e-06,
        "meta_mean_motion_ddot": 0,
        "tle_line1": "1 64899U 25156A   25355.21523742  .00000567  00000+0  97829-4 0  9997",
        "tle_line2": "2 64899  98.0016  70.4245 0017535 119.2699 241.0264 14.72069919 21787"
      },
      "geometry": {
        "type": "Point",
        "coordinates": [
          62.37220654237482,
          46.51623010029531
        ]
      }
    },
    {
      "type": "Feature",
      "properties": {
        "norad_id": 64900,
        "name": "CO3D 3",
        "group": "resource",
        "lat": -18.94119959942805,
        "lon": -110.62956675070295,
        "alt_km": 510.8375724159141,
        "timestamp": "2025-12-21T16:47:54.386951+00:00",
        "meta_object_name": "CO3D 3",
        "meta_object_id": "2025-156B",
        "meta_epoch": "2025-12-21T11:11:12.177888",
        "meta_mean_motion": 15.2021216,
        "meta_eccentricity": 0.0001338,
        "meta_inclination": 97.4342,
        "meta_ra_of_asc_node": 71.7083,
        "meta_arg_of_pericenter": 79.7296,
        "meta_mean_anomaly": 280.409,
        "meta_ephemeris_type": 0,
        "meta_classification_type": "U",
        "meta_norad_cat_id": 64900,
        "meta_element_set_no": 999,
        "meta_rev_at_epoch": 2253,
        "meta_bstar": 0.00020907,
        "meta_mean_motion_dot": 4.462e-05,
        "meta_mean_motion_ddot": 0,
        "tle_line1": "1 64900U 25156B   25355.46611317  .00004462  00000+0  20907-3 0  9993",
        "tle_line2": "2 64900  97.4342  71.7083 0001338  79.7296 280.4090 15.20212160 22536"
      },
      "geometry": {
        "type": "Point",
        "coordinates": [
          -110.62956675070295,
          -18.94119959942805
        ]
      }
    },
    {
      "type": "Feature",
      "properties": {
        "norad_id": 64901,
        "name": "CO3D 4",
        "group": "resource",
        "lat": -18.06255087900754,
        "lon": -110.50169285336057,
        "alt_km": 509.58261481656973,
        "timestamp": "2025-12-21T16:47:54.386961+00:00",
        "meta_object_name": "CO3D 4",
        "meta_object_id": "2025-156C",
        "meta_epoch": "2025-12-21T11:11:25.792800",
        "meta_mean_motion": 15.20202478,
        "meta_eccentricity": 0.0001269,
        "meta_inclination": 97.4341,
        "meta_ra_of_asc_node": 71.7086,
        "meta_arg_of_pericenter": 167.1627,
        "meta_mean_anomaly": 192.9641,
        "meta_ephemeris_type": 0,
        "meta_classification_type": "U",
        "meta_norad_cat_id": 64901,
        "meta_element_set_no": 999,
        "meta_rev_at_epoch": 2253,
        "meta_bstar": 0.00020516,
        "meta_mean_motion_dot": 4.376e-05,
        "meta_mean_motion_ddot": 0,
        "tle_line1": "1 64901U 25156C   25355.46627075  .00004376  00000+0  20516-3 0  9992",
        "tle_line2": "2 64901  97.4341  71.7086 0001269 167.1627 192.9641 15.20202478 22532"
      },
      "geometry": {
        "type": "Point",
        "coordinates": [
          -110.50169285336057,
          -18.06255087900754
        ]
      }
    },
    {
      "type": "Feature",
      "properties": {
        "norad_id": 64902,
        "name": "CO3D 2",
        "group": "resource",
        "lat": 20.219464440303483,
        "lon": 69.08162938926924,
        "alt_km": 505.0036025413683,
        "timestamp": "2025-12-21T16:47:54.386971+00:00",
        "meta_object_name": "CO3D 2",
        "meta_object_id": "2025-156D",
        "meta_epoch": "2025-12-21T11:58:11.040960",
        "meta_mean_motion": 15.20196622,
        "meta_eccentricity": 8.26e-05,
        "meta_inclination": 97.4342,
        "meta_ra_of_asc_node": 71.6399,
        "meta_arg_of_pericenter": 71.6273,
        "meta_mean_anomaly": 288.5052,
        "meta_ephemeris_type": 0,
        "meta_classification_type": "U",
        "meta_norad_cat_id": 64902,
        "meta_element_set_no": 999,
        "meta_rev_at_epoch": 2253,
        "meta_bstar": 0.00013623,
        "meta_mean_motion_dot": 2.882e-05,
        "meta_mean_motion_ddot": 0,
        "tle_line1": "1 64902U 25156D   25355.49873890  .00002882  00000+0  13623-3 0  9995",
        "tle_line2": "2 64902  97.4342  71.6399 0000826  71.6273 288.5052 15.20196622 22535"
      },
      "geometry": {
        "type": "Point",
        "coordinates": [
          69.08162938926924,
          20.219464440303483
        ]
      }
    }
  ]
}